STARLINK-35348          
1 65904U 25224Y   26155.74940914  .00025595  00000+0  76582-3 0  9992
2 65904  53.1611 325.5364 0000849  93.2925 266.8175 15.34409712 38172
STARLINK-35380          
1 65905U 25224Z   26155.68823565  .00022543  00000+0  77056-3 0  9995
2 65905  53.1600 327.2769 0001092  64.2241 295.8872 15.30216028 38144
STARLINK-35385          
1 65906U 25224AA  26155.69479168  .00034613  00000+0  10310-2 0  9993
2 65906  53.1593 325.9055 0000962  92.5489 267.5624 15.34396040 38195
STARLINK-35347          
1 65907U 25224AB  26155.68848413  .00031358  00000+0  93492-3 0  9992
2 65907  53.1600 325.8629 0001192  35.0659 325.0422 15.34414069 38196
STARLINK-35329          
1 65908U 25224AC  26155.11487191  .00015278  00000+0  46258-3 0  9994
2 65908  53.1588 328.6743 0002333 148.1122 212.0022 15.34385803 38115
STARLINK-35387          
1 65909U 25224AD  26155.64824971  .00039437  00000+0  13342-2 0  9994
2 65909  53.1597 327.7366 0001326 128.4562 231.6558 15.30258089 38131
STARLINK-35523          
1 65910U 25225A   26155.91672454  .00045602  00000+0  13893-2 0  9996
2 65910  53.1592 120.5676 0001284 100.0667 212.0691 15.33552489  5922
STARLINK-35160          
1 65911U 25225B   26155.19892541  .00024709  00000+0  73973-3 0  9999
2 65911  53.1591 123.8250 0001137 120.6792 239.4323 15.34412620 37653
STARLINK-35508          
1 65912U 25225C   26155.19051150  .00038280  00000+0  11381-2 0  9996
2 65912  53.1596 123.7674 0001358 102.2333 257.8822 15.34405239 37656
STARLINK-35472          
1 65913U 25225D   26155.21254157  .00026890  00000+0  91674-3 0  9990
2 65913  53.1578 123.8999 0001301  90.8675 269.2475 15.30199105 37656
STARLINK-35524          
1 65914U 25225E   26155.17138863  .00021358  00000+0  73109-3 0  9998
2 65914  53.1592 123.6303 0001937  37.6534 322.4602 15.30203673 37658
STARLINK-35539          
1 65915U 25225F   26155.20409702  .00015768  00000+0  54311-3 0  9998
2 65915  53.1573 123.8662 0001150  90.6096 269.5036 15.30215596 37656
STARLINK-35521          
1 65916U 25225G   26155.14299703  .00022647  00000+0  77423-3 0  9993
2 65916  53.1578 124.1791 0001314 108.9111 251.2033 15.30208322 37645
STARLINK-35478          
1 65917U 25225H   26155.21148522  .00025402  00000+0  86679-3 0  9999
2 65917  53.1580 123.8927 0001247  84.9583 275.1560 15.30201459 37652
STARLINK-35516          
1 65918U 25225J   26155.19144157  .00025017  00000+0  85303-3 0  9992
2 65918  53.1586 123.7678 0001328  84.4276 275.6876 15.30234306 37657
STARLINK-35519          
1 65919U 25225K   26155.23353113  .00025997  00000+0  88681-3 0  9991
2 65919  53.1592 123.3167 0001128  91.4998 268.6132 15.30199855 37668
STARLINK-33902          
1 65920U 25225L   26155.14010144  .00032297  00000+0  96238-3 0  9995
2 65920  53.1598 124.1599 0000984 116.8566 243.2538 15.34417483 37647
STARLINK-35530          
1 65921U 25225M   26155.91672454  .00026627  00000+0  81819-3 0  9998
2 65921  53.1588 120.7184 0001191  91.2571 143.4455 15.33543685  5920
STARLINK-35544          
1 65922U 25225N   26155.18209403  .00026671  00000+0  79737-3 0  9993
2 65922  53.1600 123.7151 0001264 107.6584 252.4556 15.34412554 37659
STARLINK-35484          
1 65923U 25225P   26155.91672454  .00025122  00000+0  77342-3 0  9995
2 65923  53.1602 120.3038 0001163  94.5387 347.7401 15.33516178  5920
STARLINK-34994          
1 65924U 25225Q   26155.44319346  .00023282  00000+0  79557-3 0  9997
2 65924  53.1601 122.4889 0001333  91.0620 269.0534 15.30207333 37697
STARLINK-35458          
1 65925U 25225R   26155.37156962  .00030530  00000+0  10392-2 0  9998
2 65925  53.1597 122.7489 0001389 107.4251 252.6902 15.30184667 37684
STARLINK-35492          
1 65926U 25225S   26155.17876087  .00022644  00000+0  77397-3 0  9990
2 65926  53.1600 123.6805 0003245 170.0235 190.0831 15.30212609 37654
STARLINK-35494          
1 65927U 25225T   26155.18419746  .00036738  00000+0  10931-2 0  9996
2 65927  53.1602 123.7223 0001225  81.1732 278.9409 15.34402384 37654
STARLINK-35493          
1 65928U 25225U   26155.91672454  .00025931  00000+0  79727-3 0  9997
2 65928  53.1591 120.6299 0001028 110.9767 167.1119 15.33540524  5921
STARLINK-35175          
1 65929U 25225V   26155.20092904  .00022700  00000+0  77603-3 0  9998
2 65929  53.1574 123.8234 0001136  91.6185 268.4946 15.30207350 37658
STARLINK-35513          
1 65930U 25225W   26155.45738653  .00090857  00000+0  26734-2 0  9991
2 65930  53.1598 122.5811 0000849 130.4040 229.7037 15.34333421 37693
STARLINK-35526          
1 65931U 25225X   26155.13244667  .00007789  00000+0  27481-3 0  9997
2 65931  53.1576 124.1031 0001449 116.0404 244.0747 15.30201680 37643
STARLINK-35436          
1 65932U 25225Y   26155.19459868  .00021472  00000+0  73473-3 0  9992
2 65932  53.1580 123.7821 0001091 101.8500 258.2623 15.30211314 37659
STARLINK-35192          
1 65933U 25225Z   26155.19261184  .00038754  00000+0  11520-2 0  9990
2 65933  53.1590 123.7759 0001127  99.6909 260.4221 15.34406497 37659
