OBJECT_NAME,OBJECT_ID,EPOCH,MEAN_MOTION,ECCENTRICITY,INCLINATION,RA_OF_ASC_NODE,ARG_OF_PERICENTER,MEAN_ANOMALY,EPHEMERIS_TYPE,CLASSIFICATION_TYPE,NORAD_CAT_ID,ELEMENT_SET_NO,REV_AT_EPOCH,BSTAR,MEAN_MOTION_DOT,MEAN_MOTION_DDOT
STARLINK-35348,2025-224Y,2026-06-04T17:59:08.949696,15.34409712,.00008498,53.1611,325.5364,93.2925,266.8175,0,U,65904,999,3817,.76582163E-3,.25595E-3,0
STARLINK-35380,2025-224Z,2026-06-04T16:31:03.560160,15.30216028,.00010929,53.1600,327.2769,64.2241,295.8872,0,U,65905,999,3814,.77056195E-3,.22543E-3,0
STARLINK-35385,2025-224AA,2026-06-04T16:40:30.001152,15.34396040,.00009624,53.1593,325.9055,92.5489,267.5624,0,U,65906,999,3819,.10309519E-2,.34613E-3,0
STARLINK-35347,2025-224AB,2026-06-04T16:31:25.028832,15.34414069,.00011923,53.1600,325.8629,35.0659,325.0422,0,U,65907,999,3819,.93492231E-3,.31358E-3,0
STARLINK-35329,2025-224AC,2026-06-04T02:45:24.933024,15.34385803,.00023337,53.1588,328.6743,148.1122,212.0022,0,U,65908,999,3811,.4625763E-3,.15278E-3,0
STARLINK-35387,2025-224AD,2026-06-04T15:33:28.774944,15.30258089,.0001326,53.1597,327.7366,128.4562,231.6558,0,U,65909,999,3813,.13342053E-2,.39437E-3,0
STARLINK-35523,2025-225A,2026-06-04T22:00:05.000256,15.33552489,.00012849,53.1592,120.5676,100.0667,212.0691,0,U,65910,999,592,.13893047E-2,.45602E-3,0
STARLINK-35160,2025-225B,2026-06-04T04:46:27.155424,15.34412620,.00011371,53.1591,123.8250,120.6792,239.4323,0,U,65911,999,3765,.73973292E-3,.24709E-3,0
STARLINK-35508,2025-225C,2026-06-04T04:34:20.193600,15.34405239,.00013583,53.1596,123.7674,102.2333,257.8822,0,U,65912,999,3765,.113813E-2,.3828E-3,0
STARLINK-35472,2025-225D,2026-06-04T05:06:03.591648,15.30199105,.00013017,53.1578,123.8999,90.8675,269.2475,0,U,65913,999,3765,.91674191E-3,.2689E-3,0
STARLINK-35524,2025-225E,2026-06-04T04:06:47.977632,15.30203673,.00019372,53.1592,123.6303,37.6534,322.4602,0,U,65914,999,3765,.73108572E-3,.21358E-3,0
STARLINK-35539,2025-225F,2026-06-04T04:53:53.982528,15.30215596,.000115,53.1573,123.8662,90.6096,269.5036,0,U,65915,999,3765,.54311419E-3,.15768E-3,0
STARLINK-35521,2025-225G,2026-06-04T03:25:54.943392,15.30208322,.00013146,53.1578,124.1791,108.9111,251.2033,0,U,65916,999,3764,.774229E-3,.22647E-3,0
STARLINK-35478,2025-225H,2026-06-04T05:04:32.323008,15.30201459,.00012473,53.1580,123.8927,84.9583,275.1560,0,U,65917,999,3765,.86678761E-3,.25402E-3,0
STARLINK-35516,2025-225J,2026-06-04T04:35:40.551648,15.30234306,.00013288,53.1586,123.7678,84.4276,275.6876,0,U,65918,999,3765,.85303203E-3,.25017E-3,0
STARLINK-35519,2025-225K,2026-06-04T05:36:17.089632,15.30199855,.00011281,53.1592,123.3167,91.4998,268.6132,0,U,65919,999,3766,.8868132E-3,.25997E-3,0
STARLINK-33902,2025-225L,2026-06-04T03:21:44.764416,15.34417483,.00009848,53.1598,124.1599,116.8566,243.2538,0,U,65920,999,3764,.96237974E-3,.32297E-3,0
STARLINK-35530,2025-225M,2026-06-04T22:00:05.000256,15.33543685,.00011911,53.1588,120.7184,91.2571,143.4455,0,U,65921,999,592,.81819223E-3,.26627E-3,0
STARLINK-35544,2025-225N,2026-06-04T04:22:12.924192,15.34412554,.00012641,53.1600,123.7151,107.6584,252.4556,0,U,65922,999,3765,.79736861E-3,.26671E-3,0
STARLINK-35484,2025-225P,2026-06-04T22:00:05.000256,15.33516178,.00011638,53.1602,120.3038,94.5387,347.7401,0,U,65923,999,592,.77341791E-3,.25122E-3,0
STARLINK-34994,2025-225Q,2026-06-04T10:38:11.914944,15.30207333,.00013338,53.1601,122.4889,91.0620,269.0534,0,U,65924,999,3769,.79556554E-3,.23282E-3,0
STARLINK-35458,2025-225R,2026-06-04T08:55:03.615168,15.30184667,.00013898,53.1597,122.7489,107.4251,252.6902,0,U,65925,999,3768,.10391763E-2,.3053E-3,0
STARLINK-35492,2025-225S,2026-06-04T04:17:24.939168,15.30212609,.00032456,53.1600,123.6805,170.0235,190.0831,0,U,65926,999,3765,.77397023E-3,.22644E-3,0
STARLINK-35494,2025-225T,2026-06-04T04:25:14.660544,15.34402384,.00012258,53.1602,123.7223,81.1732,278.9409,0,U,65927,999,3765,.10930552E-2,.36738E-3,0
STARLINK-35493,2025-225U,2026-06-04T22:00:05.000256,15.33540524,.00010288,53.1591,120.6299,110.9767,167.1119,0,U,65928,999,592,.79727362E-3,.25931E-3,0
STARLINK-35175,2025-225V,2026-06-04T04:49:20.269056,15.30207350,.00011368,53.1574,123.8234,91.6185,268.4946,0,U,65929,999,3765,.77602594E-3,.227E-3,0
STARLINK-35513,2025-225W,2026-06-04T10:58:38.196192,15.34333421,.0000849,53.1598,122.5811,130.4040,229.7037,0,U,65930,999,3769,.2673443E-2,.90857E-3,0
STARLINK-35526,2025-225X,2026-06-04T03:10:43.392288,15.30201680,.00014492,53.1576,124.1031,116.0404,244.0747,0,U,65931,999,3764,.27481E-3,.7789E-4,0
STARLINK-35436,2025-225Y,2026-06-04T04:40:13.325952,15.30211314,.00010914,53.1580,123.7821,101.8500,258.2623,0,U,65932,999,3765,.73473415E-3,.21472E-3,0
STARLINK-35192,2025-225Z,2026-06-04T04:37:21.662976,15.34406497,.00011274,53.1590,123.7759,99.6909,260.4221,0,U,65933,999,3765,.11519732E-2,.38754E-3,0
